[
 {
   "Name": "name1",
   "Group": "group1",
   "Zip": 40021
 },
 {
   "Name": "name2",
   "Group": "group2",
   "Zip": 40022
 },
 {
   "Name": "name3",
   "Group": "group3",
   "Zip": 40023
 },
 {
   "Name": "name4",
   "Group": "group4",
   "Zip": 40024
 },
 {
   "Name": "name5",
   "Group": "group5",
   "Zip": 40025
 },
 {
   "Name": "name6",
   "Group": "group6",
   "Zip": 40026
 },
 {
   "Name": "name7",
   "Group": "group7",
   "Zip": 40027
 },
 {
   "Name": "name8",
   "Group": "group8",
   "Zip": 40028
 },
 {
   "Name": "name9",
   "Group": "group9",
   "Zip": 40029
 },
 {
   "Name": "name10",
   "Group": "group10",
   "Zip": 40030
 },
 {
   "Name": "name11",
   "Group": "group11",
   "Zip": 40031
 },
 {
   "Name": "name12",
   "Group": "group12",
   "Zip": 40032
 },
 {
   "Name": "name13",
   "Group": "group13",
   "Zip": 40033
 },
 {
   "Name": "name14",
   "Group": "group14",
   "Zip": 40034
 },
 {
   "Name": "name15",
   "Group": "group15",
   "Zip": 40035
 },
 {
   "Name": "name16",
   "Group": "group16",
   "Zip": 40036
 },
 {
   "Name": "name17",
   "Group": "group17",
   "Zip": 40037
 },
 {
   "Name": "name18",
   "Group": "group18",
   "Zip": 40038
 },
 {
   "Name": "name19",
   "Group": "group19",
   "Zip": 40039
 },
 {
   "Name": "name20",
   "Group": "group20",
   "Zip": 40040
 },
 {
   "Name": "name21",
   "Group": "group21",
   "Zip": 40041
 },
 {
   "Name": "name22",
   "Group": "group22",
   "Zip": 40042
 },
 {
   "Name": "name23",
   "Group": "group23",
   "Zip": 40043
 },
 {
   "Name": "name24",
   "Group": "group24",
   "Zip": 40044
 }
]
